{
  "links" : {
    "next" : "https://api.nasa.gov/neo/rest/v1/feed?start_date=1995-11-23&end_date=1995-11-23&detailed=true&api_key=t0TVs3DtDT2H8Oy2Zy8m2eVrNsAVKAexjcZXUckd",
    "prev" : "https://api.nasa.gov/neo/rest/v1/feed?start_date=1995-11-21&end_date=1995-11-21&detailed=true&api_key=t0TVs3DtDT2H8Oy2Zy8m2eVrNsAVKAexjcZXUckd",
    "self" : "https://api.nasa.gov/neo/rest/v1/feed?start_date=1995-11-22&end_date=1995-11-22&detailed=true&api_key=t0TVs3DtDT2H8Oy2Zy8m2eVrNsAVKAexjcZXUckd"
  },
  "element_count" : 6,
  "near_earth_objects" : {
    "1995-11-22" : [ {
      "links" : {
        "self" : "https://api.nasa.gov/neo/rest/v1/neo/2152978?api_key=t0TVs3DtDT2H8Oy2Zy8m2eVrNsAVKAexjcZXUckd"
      },
      "neo_reference_id" : "2152978",
      "name" : "152978 (2000 GJ147)",
      "nasa_jpl_url" : "http://ssd.jpl.nasa.gov/sbdb.cgi?sstr=2152978",
      "absolute_magnitude_h" : 19.6,
      "estimated_diameter" : {
        "kilometers" : {
          "estimated_diameter_min" : 0.3195618867,
          "estimated_diameter_max" : 0.7145621017
        },
        "meters" : {
          "estimated_diameter_min" : 319.5618867213,
          "estimated_diameter_max" : 714.5621017269
        },
        "miles" : {
          "estimated_diameter_min" : 0.1985664891,
          "estimated_diameter_max" : 0.4440081677
        },
        "feet" : {
          "estimated_diameter_min" : 1048.4314204307,
          "estimated_diameter_max" : 2344.3639258298
        }
      },
      "is_potentially_hazardous_asteroid" : true,
      "close_approach_data" : [ {
        "close_approach_date" : "1995-11-22",
        "epoch_date_close_approach" : 817027200000,
        "relative_velocity" : {
          "kilometers_per_second" : "13.121608316",
          "kilometers_per_hour" : "47237.7899377145",
          "miles_per_hour" : "29351.7256421315"
        },
        "miss_distance" : {
          "astronomical" : "0.3612256356",
          "lunar" : "140.5167694092",
          "kilometers" : "54038588",
          "miles" : "33578020"
        },
        "orbiting_body" : "Earth"
      } ],
      "orbital_data" : {
        "orbit_id" : "109",
        "orbit_determination_date" : "2017-04-06 09:27:08",
        "orbit_uncertainty" : "0",
        "minimum_orbit_intersection" : ".0247891",
        "jupiter_tisserand_invariant" : "5.310",
        "epoch_osculation" : "2458000.5",
        "eccentricity" : ".2365803036841376",
        "semi_major_axis" : "1.162054188805341",
        "inclination" : "25.00778018028834",
        "ascending_node_longitude" : "57.87465674677426",
        "orbital_period" : "457.5494078476248",
        "perihelion_distance" : ".887135055920349",
        "perihelion_argument" : "240.7970766723728",
        "aphelion_distance" : "1.436973321690333",
        "perihelion_time" : "2458141.973627601741",
        "mean_anomaly" : "248.6885108731514",
        "mean_motion" : ".7868002751735369",
        "equinox" : "J2000"
      }
    }, {
      "links" : {
        "self" : "https://api.nasa.gov/neo/rest/v1/neo/3373683?api_key=t0TVs3DtDT2H8Oy2Zy8m2eVrNsAVKAexjcZXUckd"
      },
      "neo_reference_id" : "3373683",
      "name" : "(2007 GS3)",
      "nasa_jpl_url" : "http://ssd.jpl.nasa.gov/sbdb.cgi?sstr=3373683",
      "absolute_magnitude_h" : 19.4,
      "estimated_diameter" : {
        "kilometers" : {
          "estimated_diameter_min" : 0.3503926411,
          "estimated_diameter_max" : 0.7835017643
        },
        "meters" : {
          "estimated_diameter_min" : 350.3926411083,
          "estimated_diameter_max" : 783.5017643338
        },
        "miles" : {
          "estimated_diameter_min" : 0.2177238258,
          "estimated_diameter_max" : 0.4868452748
        },
        "feet" : {
          "estimated_diameter_min" : 1149.5821926537,
          "estimated_diameter_max" : 2570.543928497
        }
      },
      "is_potentially_hazardous_asteroid" : true,
      "close_approach_data" : [ {
        "close_approach_date" : "1995-11-22",
        "epoch_date_close_approach" : 817027200000,
        "relative_velocity" : {
          "kilometers_per_second" : "7.9524044024",
          "kilometers_per_hour" : "28628.6558485825",
          "miles_per_hour" : "17788.7334076928"
        },
        "miss_distance" : {
          "astronomical" : "0.2697244303",
          "lunar" : "104.9228057861",
          "kilometers" : "40350200",
          "miles" : "25072452"
        },
        "orbiting_body" : "Earth"
      } ],
      "orbital_data" : {
        "orbit_id" : "44",
        "orbit_determination_date" : "2017-05-03 06:18:20",
        "orbit_uncertainty" : "1",
        "minimum_orbit_intersection" : ".0215286",
        "jupiter_tisserand_invariant" : "5.768",
        "epoch_osculation" : "2457800.5",
        "eccentricity" : ".1290438595815365",
        "semi_major_axis" : "1.061197120692007",
        "inclination" : "15.08972042172532",
        "ascending_node_longitude" : "215.4436355173162",
        "orbital_period" : "399.2937581924141",
        "perihelion_distance" : ".924256148461097",
        "perihelion_argument" : "61.17301359257869",
        "aphelion_distance" : "1.198138092922917",
        "perihelion_time" : "2457865.405627994874",
        "mean_anomaly" : "301.4816144786948",
        "mean_motion" : ".9015918546528368",
        "equinox" : "J2000"
      }
    }, {
      "links" : {
        "self" : "https://api.nasa.gov/neo/rest/v1/neo/3565394?api_key=t0TVs3DtDT2H8Oy2Zy8m2eVrNsAVKAexjcZXUckd"
      },
      "neo_reference_id" : "3565394",
      "name" : "(2011 JV10)",
      "nasa_jpl_url" : "http://ssd.jpl.nasa.gov/sbdb.cgi?sstr=3565394",
      "absolute_magnitude_h" : 29.7,
      "estimated_diameter" : {
        "kilometers" : {
          "estimated_diameter_min" : 0.0030517923,
          "estimated_diameter_max" : 0.0068240151
        },
        "meters" : {
          "estimated_diameter_min" : 3.0517923259,
          "estimated_diameter_max" : 6.824015094
        },
        "miles" : {
          "estimated_diameter_min" : 0.0018962952,
          "estimated_diameter_max" : 0.0042402451
        },
        "feet" : {
          "estimated_diameter_min" : 10.0124423346,
          "estimated_diameter_max" : 22.388501681
        }
      },
      "is_potentially_hazardous_asteroid" : false,
      "close_approach_data" : [ {
        "close_approach_date" : "1995-11-22",
        "epoch_date_close_approach" : 817027200000,
        "relative_velocity" : {
          "kilometers_per_second" : "19.1262861676",
          "kilometers_per_hour" : "68854.6302035087",
          "miles_per_hour" : "42783.5895283968"
        },
        "miss_distance" : {
          "astronomical" : "0.4687864811",
          "lunar" : "182.3579406738",
          "kilometers" : "70129456",
          "miles" : "43576424"
        },
        "orbiting_body" : "Earth"
      } ],
      "orbital_data" : {
        "orbit_id" : "6",
        "orbit_determination_date" : "2017-04-06 08:53:30",
        "orbit_uncertainty" : "7",
        "minimum_orbit_intersection" : ".00110619",
        "jupiter_tisserand_invariant" : "5.481",
        "epoch_osculation" : "2458000.5",
        "eccentricity" : ".2022066654251082",
        "semi_major_axis" : "1.139867612715609",
        "inclination" : "1.404650461741398",
        "ascending_node_longitude" : "221.3622191958433",
        "orbital_period" : "444.5084774896044",
        "perihelion_distance" : ".9093787837223068",
        "perihelion_argument" : "297.5330995701773",
        "aphelion_distance" : "1.370356441708911",
        "perihelion_time" : "2457852.946091933139",
        "mean_anomaly" : "119.5014484404572",
        "mean_motion" : ".8098833165862831",
        "equinox" : "J2000"
      }
    } ]
  }
}